ISS (ZARYA)             
1 25544U 98067A   25322.86766953  .00013464  00000+0  24514-3 0  9990
2 25544  51.6332 260.6313 0004180  85.6954 274.4512 15.49802634539153
CSS (TIANHE)            
1 48274U 21035A   25322.94465235  .00020545  00000+0  25704-3 0  9994
2 48274  41.4655 161.0797 0007147 192.6976 167.3683 15.59286551260315
ISS (NAUKA)             
1 49044U 21066A   25322.86766953  .00013464  00000+0  24514-3 0  9996
2 49044  51.6332 260.6313 0004180  85.6954 274.4512 15.49802634230444
FREGAT DEB              
1 49271U 11037PF  25321.55102087  .00011346  00000+0  24565-1 0  9993
2 49271  51.6212 273.9257 0877270 169.5316 192.5188 12.34114161198825
CSS (WENTIAN)           
1 53239U 22085A   25322.94465235  .00020545  00000+0  25704-3 0  9997
2 53239  41.4655 161.0797 0007147 192.6976 167.3683 15.59286551173843
CSS (MENGTIAN)          
1 54216U 22143A   25322.94465235  .00020545  00000+0  25704-3 0  9998
2 54216  41.4655 161.0797 0007147 192.6976 167.3683 15.59286551158640
SOYUZ-MS 27             
1 63520U 25072A   25322.86766953  .00013464  00000+0  24514-3 0  9992
2 63520  51.6332 260.6313 0004180  85.6954 274.4512 15.49802634 20200
SHENZHOU-20 (SZ-20)     
1 63632U 25082A   25322.94465235  .00020545  00000+0  25704-3 0  9995
2 63632  41.4655 161.0797 0007147 192.6976 167.3683 15.59286551255303
PROGRESS-MS 31          
1 64751U 25146A   25322.86766953  .00013464  00000+0  24514-3 0  9991
2 64751  51.6332 260.6313 0004180  85.6954 274.4512 15.49802634  6751
TIANZHOU-9              
1 64786U 25149A   25322.94465235  .00020545  00000+0  25704-3 0  9990
2 64786  41.4655 161.0797 0007147 192.6976 167.3683 15.59286551255304
CREW DRAGON 11          
1 65077U 25166A   25322.86766953  .00013464  00000+0  24514-3 0  9995
2 65077  51.6332 260.6313 0004180  85.6954 274.4512 15.49802634  2142
DRAGON CRS-33           
1 65304U 25186A   25322.86766953  .00013464  00000+0  24514-3 0  9990
2 65304  51.6332 260.6313 0004180  85.6954 274.4512 15.49802634   110
