CCSDS_OMM_VERS = 2.0
CREATION_DATE  = 
ORIGINATOR     = 

OBJECT_NAME    = ISS (ZARYA)
OBJECT_ID      = 1998-067A
CENTER_NAME    = EARTH
REF_FRAME      = TEME
TIME_SYSTEM    = UTC
MEAN_ELEMENT_THEORY = SGP/SGP4

EPOCH          = 2025-11-18T20:49:26.647392
MEAN_MOTION    = 15.49802634
ECCENTRICITY   = .00041801
INCLINATION    = 51.6332
RA_OF_ASC_NODE = 260.6313
ARG_OF_PERICENTER = 85.6954
MEAN_ANOMALY   = 274.4512

EPHEMERIS_TYPE = 0
CLASSIFICATION_TYPE = U
NORAD_CAT_ID   = 25544
ELEMENT_SET_NO = 999
REV_AT_EPOCH   = 53915
BSTAR          = .24513891E-3
MEAN_MOTION_DOT = .13464E-3
MEAN_MOTION_DDOT = 0

CCSDS_OMM_VERS = 2.0
CREATION_DATE  = 
ORIGINATOR     = 

OBJECT_NAME    = CSS (TIANHE)
OBJECT_ID      = 2021-035A
CENTER_NAME    = EARTH
REF_FRAME      = TEME
TIME_SYSTEM    = UTC
MEAN_ELEMENT_THEORY = SGP/SGP4

EPOCH          = 2025-11-18T22:40:17.963040
MEAN_MOTION    = 15.59286551
ECCENTRICITY   = .00071478
INCLINATION    = 41.4655
RA_OF_ASC_NODE = 161.0797
ARG_OF_PERICENTER = 192.6976
MEAN_ANOMALY   = 167.3683

EPHEMERIS_TYPE = 0
CLASSIFICATION_TYPE = U
NORAD_CAT_ID   = 48274
ELEMENT_SET_NO = 999
REV_AT_EPOCH   = 26031
BSTAR          = .25704412E-3
MEAN_MOTION_DOT = .20545E-3
MEAN_MOTION_DDOT = 0

CCSDS_OMM_VERS = 2.0
CREATION_DATE  = 
ORIGINATOR     = 

OBJECT_NAME    = ISS (NAUKA)
OBJECT_ID      = 2021-066A
CENTER_NAME    = EARTH
REF_FRAME      = TEME
TIME_SYSTEM    = UTC
MEAN_ELEMENT_THEORY = SGP/SGP4

EPOCH          = 2025-11-18T20:49:26.647392
MEAN_MOTION    = 15.49802634
ECCENTRICITY   = .00041801
INCLINATION    = 51.6332
RA_OF_ASC_NODE = 260.6313
ARG_OF_PERICENTER = 85.6954
MEAN_ANOMALY   = 274.4512

EPHEMERIS_TYPE = 0
CLASSIFICATION_TYPE = U
NORAD_CAT_ID   = 49044
ELEMENT_SET_NO = 999
REV_AT_EPOCH   = 23044
BSTAR          = .24513891E-3
MEAN_MOTION_DOT = .13464E-3
MEAN_MOTION_DDOT = 0

CCSDS_OMM_VERS = 2.0
CREATION_DATE  = 
ORIGINATOR     = 

OBJECT_NAME    = FREGAT DEB
OBJECT_ID      = 2011-037PF
CENTER_NAME    = EARTH
REF_FRAME      = TEME
TIME_SYSTEM    = UTC
MEAN_ELEMENT_THEORY = SGP/SGP4

EPOCH          = 2025-11-17T13:13:28.203168
MEAN_MOTION    = 12.34114161
ECCENTRICITY   = .087727
INCLINATION    = 51.6212
RA_OF_ASC_NODE = 273.9257
ARG_OF_PERICENTER = 169.5316
MEAN_ANOMALY   = 192.5188

EPHEMERIS_TYPE = 0
CLASSIFICATION_TYPE = U
NORAD_CAT_ID   = 49271
ELEMENT_SET_NO = 999
REV_AT_EPOCH   = 19882
BSTAR          = .24564836E-1
MEAN_MOTION_DOT = .11346E-3
MEAN_MOTION_DDOT = 0

CCSDS_OMM_VERS = 2.0
CREATION_DATE  = 
ORIGINATOR     = 

OBJECT_NAME    = CSS (WENTIAN)
OBJECT_ID      = 2022-085A
CENTER_NAME    = EARTH
REF_FRAME      = TEME
TIME_SYSTEM    = UTC
MEAN_ELEMENT_THEORY = SGP/SGP4

EPOCH          = 2025-11-18T22:40:17.963040
MEAN_MOTION    = 15.59286551
ECCENTRICITY   = .00071478
INCLINATION    = 41.4655
RA_OF_ASC_NODE = 161.0797
ARG_OF_PERICENTER = 192.6976
MEAN_ANOMALY   = 167.3683

EPHEMERIS_TYPE = 0
CLASSIFICATION_TYPE = U
NORAD_CAT_ID   = 53239
ELEMENT_SET_NO = 999
REV_AT_EPOCH   = 17384
BSTAR          = .25704412E-3
MEAN_MOTION_DOT = .20545E-3
MEAN_MOTION_DDOT = 0

CCSDS_OMM_VERS = 2.0
CREATION_DATE  = 
ORIGINATOR     = 

OBJECT_NAME    = CSS (MENGTIAN)
OBJECT_ID      = 2022-143A
CENTER_NAME    = EARTH
REF_FRAME      = TEME
TIME_SYSTEM    = UTC
MEAN_ELEMENT_THEORY = SGP/SGP4

EPOCH          = 2025-11-18T22:40:17.963040
MEAN_MOTION    = 15.59286551
ECCENTRICITY   = .00071478
INCLINATION    = 41.4655
RA_OF_ASC_NODE = 161.0797
ARG_OF_PERICENTER = 192.6976
MEAN_ANOMALY   = 167.3683

EPHEMERIS_TYPE = 0
CLASSIFICATION_TYPE = U
NORAD_CAT_ID   = 54216
ELEMENT_SET_NO = 999
REV_AT_EPOCH   = 15864
BSTAR          = .25704412E-3
MEAN_MOTION_DOT = .20545E-3
MEAN_MOTION_DDOT = 0

CCSDS_OMM_VERS = 2.0
CREATION_DATE  = 
ORIGINATOR     = 

OBJECT_NAME    = SOYUZ-MS 27
OBJECT_ID      = 2025-072A
CENTER_NAME    = EARTH
REF_FRAME      = TEME
TIME_SYSTEM    = UTC
MEAN_ELEMENT_THEORY = SGP/SGP4

EPOCH          = 2025-11-18T20:49:26.647392
MEAN_MOTION    = 15.49802634
ECCENTRICITY   = .00041801
INCLINATION    = 51.6332
RA_OF_ASC_NODE = 260.6313
ARG_OF_PERICENTER = 85.6954
MEAN_ANOMALY   = 274.4512

EPHEMERIS_TYPE = 0
CLASSIFICATION_TYPE = U
NORAD_CAT_ID   = 63520
ELEMENT_SET_NO = 999
REV_AT_EPOCH   = 2020
BSTAR          = .24513891E-3
MEAN_MOTION_DOT = .13464E-3
MEAN_MOTION_DDOT = 0

CCSDS_OMM_VERS = 2.0
CREATION_DATE  = 
ORIGINATOR     = 

OBJECT_NAME    = SHENZHOU-20 (SZ-20)
OBJECT_ID      = 2025-082A
CENTER_NAME    = EARTH
REF_FRAME      = TEME
TIME_SYSTEM    = UTC
MEAN_ELEMENT_THEORY = SGP/SGP4

EPOCH          = 2025-11-18T22:40:17.963040
MEAN_MOTION    = 15.59286551
ECCENTRICITY   = .00071478
INCLINATION    = 41.4655
RA_OF_ASC_NODE = 161.0797
ARG_OF_PERICENTER = 192.6976
MEAN_ANOMALY   = 167.3683

EPHEMERIS_TYPE = 0
CLASSIFICATION_TYPE = U
NORAD_CAT_ID   = 63632
ELEMENT_SET_NO = 999
REV_AT_EPOCH   = 25530
BSTAR          = .25704412E-3
MEAN_MOTION_DOT = .20545E-3
MEAN_MOTION_DDOT = 0

CCSDS_OMM_VERS = 2.0
CREATION_DATE  = 
ORIGINATOR     = 

OBJECT_NAME    = PROGRESS-MS 31
OBJECT_ID      = 2025-146A
CENTER_NAME    = EARTH
REF_FRAME      = TEME
TIME_SYSTEM    = UTC
MEAN_ELEMENT_THEORY = SGP/SGP4

EPOCH          = 2025-11-18T20:49:26.647392
MEAN_MOTION    = 15.49802634
ECCENTRICITY   = .00041801
INCLINATION    = 51.6332
RA_OF_ASC_NODE = 260.6313
ARG_OF_PERICENTER = 85.6954
MEAN_ANOMALY   = 274.4512

EPHEMERIS_TYPE = 0
CLASSIFICATION_TYPE = U
NORAD_CAT_ID   = 64751
ELEMENT_SET_NO = 999
REV_AT_EPOCH   = 675
BSTAR          = .24513891E-3
MEAN_MOTION_DOT = .13464E-3
MEAN_MOTION_DDOT = 0

CCSDS_OMM_VERS = 2.0
CREATION_DATE  = 
ORIGINATOR     = 

OBJECT_NAME    = TIANZHOU-9
OBJECT_ID      = 2025-149A
CENTER_NAME    = EARTH
REF_FRAME      = TEME
TIME_SYSTEM    = UTC
MEAN_ELEMENT_THEORY = SGP/SGP4

EPOCH          = 2025-11-18T22:40:17.963040
MEAN_MOTION    = 15.59286551
ECCENTRICITY   = .00071478
INCLINATION    = 41.4655
RA_OF_ASC_NODE = 161.0797
ARG_OF_PERICENTER = 192.6976
MEAN_ANOMALY   = 167.3683

EPHEMERIS_TYPE = 0
CLASSIFICATION_TYPE = U
NORAD_CAT_ID   = 64786
ELEMENT_SET_NO = 999
REV_AT_EPOCH   = 25530
BSTAR          = .25704412E-3
MEAN_MOTION_DOT = .20545E-3
MEAN_MOTION_DDOT = 0

CCSDS_OMM_VERS = 2.0
CREATION_DATE  = 
ORIGINATOR     = 

OBJECT_NAME    = CREW DRAGON 11
OBJECT_ID      = 2025-166A
CENTER_NAME    = EARTH
REF_FRAME      = TEME
TIME_SYSTEM    = UTC
MEAN_ELEMENT_THEORY = SGP/SGP4

EPOCH          = 2025-11-18T20:49:26.647392
MEAN_MOTION    = 15.49802634
ECCENTRICITY   = .00041801
INCLINATION    = 51.6332
RA_OF_ASC_NODE = 260.6313
ARG_OF_PERICENTER = 85.6954
MEAN_ANOMALY   = 274.4512

EPHEMERIS_TYPE = 0
CLASSIFICATION_TYPE = U
NORAD_CAT_ID   = 65077
ELEMENT_SET_NO = 999
REV_AT_EPOCH   = 214
BSTAR          = .24513891E-3
MEAN_MOTION_DOT = .13464E-3
MEAN_MOTION_DDOT = 0

CCSDS_OMM_VERS = 2.0
CREATION_DATE  = 
ORIGINATOR     = 

OBJECT_NAME    = DRAGON CRS-33
OBJECT_ID      = 2025-186A
CENTER_NAME    = EARTH
REF_FRAME      = TEME
TIME_SYSTEM    = UTC
MEAN_ELEMENT_THEORY = SGP/SGP4

EPOCH          = 2025-11-18T20:49:26.647392
MEAN_MOTION    = 15.49802634
ECCENTRICITY   = .00041801
INCLINATION    = 51.6332
RA_OF_ASC_NODE = 260.6313
ARG_OF_PERICENTER = 85.6954
MEAN_ANOMALY   = 274.4512

EPHEMERIS_TYPE = 0
CLASSIFICATION_TYPE = U
NORAD_CAT_ID   = 65304
ELEMENT_SET_NO = 999
REV_AT_EPOCH   = 11
BSTAR          = .24513891E-3
MEAN_MOTION_DOT = .13464E-3
MEAN_MOTION_DDOT = 0

